*******************************************************************************
Ephemeris / WWW_USER Mon Jul 15 19:11:29 2024 Pasadena, USA      / Horizons    
*******************************************************************************
Target body name: (2018 RY7)                      {source: JPL#20}
Center body name: Earth (399)                     {source: DE441}
Center-site name: Gemini South Obs., Cerro Pachon
*******************************************************************************
Start time      : A.D. 2018-Oct-19 23:04:00.0000 UT      
Stop  time      : A.D. 2018-Oct-20 09:51:00.0000 UT      
Step-size       : 1 minutes
*******************************************************************************
Target pole/equ : undefined
Target radii    : undefined                                                    
Center geodetic : 289.2634, -30.2406227, 2.71233  {E-lon(deg),Lat(deg),Alt(km)}
Center cylindric: 289.2634,5517.21435,-3194.81213 {E-lon(deg),Dxy(km),Dz(km)}
Center pole/equ : ITRF93                          {East-longitude positive}
Center radii    : 6378.137, 6378.137, 6356.752 km {Equator_a, b, pole_c}       
Target primary  : Sun
Vis. interferer : MOON (R_eq= 1737.400) km        {source: DE441}
Rel. light bend : Sun                             {source: DE441}
Rel. lght bnd GM: 1.3271E+11 km^3/s^2                                          
Small-body perts: Yes                             {source: SB441-N16}
Atmos refraction: NO (AIRLESS)
RA format       : HMS
Time format     : CAL 
Calendar mode   : Mixed Julian/Gregorian
RTS-only print  : NO       
EOP file        : eop.240715.p241008                                           
EOP coverage    : DATA-BASED 1962-JAN-20 TO 2024-JUL-15. PREDICTS-> 2024-OCT-07
Units conversion: 1 au= 149597870.700 km, c= 299792.458 km/s, 1 day= 86400.0 s 
Table cut-offs 1: Elevation (-90.0deg=NO ),Airmass (>38.000=NO), Daylight (YES)
Table cut-offs 2: Solar elongation (  0.0,180.0=NO ),Local Hour Angle( 0.0=NO )
Table cut-offs 3: RA/DEC angular rate (     0.0=NO )                           
*******************************************************************************
Initial IAU76/J2000 heliocentric ecliptic osculating elements (au, days, deg.):
  EPOCH=  2458422.5 ! 2018-Oct-31.00 (TDB)         Residual RMS= .22459        
   EC= .1470549687381346   QR= .8667733479166969   TP= 2458516.8896767548      
   OM= 2.838668085760325   W=  136.9006026425241   IN= 13.35135890147074       
  Equivalent ICRF heliocentric cartesian coordinates (au, au/d):
   X= 8.791791513870114E-01  Y= 4.508422091141234E-01  Z= 3.244113040133835E-01
  VX=-1.085418916943652E-02 VY= 1.006005810562689E-02 VZ= 7.673980932675997E-03
Asteroid physical parameters (km, seconds, rotational period in hours):        
   GM= n.a.                RAD= n.a.               ROTPER= n.a.                
   H= 24.4                 G= .150                 B-V= n.a.                   
                           ALBEDO= n.a.            STYP= n.a.                  
*******************************************************************************
 Date__(UT)__HR:MN     R.A._________(ICRF)_________DEC
******************************************************
$$SOE
 2018-Oct-20 01:07  m  21 28 33.448870 +27 24 39.38696
 2018-Oct-20 01:08  m  21 28 33.222237 +27 24 40.88286
 2018-Oct-20 01:09  m  21 28 32.995629 +27 24 42.37819
 2018-Oct-20 01:10  m  21 28 32.769046 +27 24 43.87296
 2018-Oct-20 01:11  m  21 28 32.542489 +27 24 45.36715
 2018-Oct-20 01:12  m  21 28 32.315957 +27 24 46.86079
 2018-Oct-20 01:13  m  21 28 32.089452 +27 24 48.35385
 2018-Oct-20 01:14  m  21 28 31.862974 +27 24 49.84635
 2018-Oct-20 01:15  m  21 28 31.636523 +27 24 51.33829
 2018-Oct-20 01:16  m  21 28 31.410099 +27 24 52.82966
 2018-Oct-20 01:17  m  21 28 31.183703 +27 24 54.32047
 2018-Oct-20 01:18  m  21 28 30.957335 +27 24 55.81072
 2018-Oct-20 01:19  m  21 28 30.730995 +27 24 57.30041
 2018-Oct-20 01:20  m  21 28 30.504685 +27 24 58.78953
 2018-Oct-20 01:21  m  21 28 30.278403 +27 25 00.27809
 2018-Oct-20 01:22  m  21 28 30.052151 +27 25 01.76610
 2018-Oct-20 01:23  m  21 28 29.825929 +27 25 03.25354
 2018-Oct-20 01:24  m  21 28 29.599738 +27 25 04.74042
 2018-Oct-20 01:25  m  21 28 29.373577 +27 25 06.22675
 2018-Oct-20 01:26  m  21 28 29.147447 +27 25 07.71252
 2018-Oct-20 01:27  m  21 28 28.921348 +27 25 09.19773
 2018-Oct-20 01:28  m  21 28 28.695281 +27 25 10.68238
 2018-Oct-20 01:29  m  21 28 28.469246 +27 25 12.16648
 2018-Oct-20 01:30  m  21 28 28.243244 +27 25 13.65003
 2018-Oct-20 01:31  m  21 28 28.017274 +27 25 15.13301
 2018-Oct-20 01:32  m  21 28 27.791337 +27 25 16.61545
 2018-Oct-20 01:33  m  21 28 27.565434 +27 25 18.09733
 2018-Oct-20 01:34  m  21 28 27.339565 +27 25 19.57866
 2018-Oct-20 01:35  m  21 28 27.113730 +27 25 21.05944
 2018-Oct-20 01:36  m  21 28 26.887929 +27 25 22.53967
 2018-Oct-20 01:37  m  21 28 26.662163 +27 25 24.01935
 2018-Oct-20 01:38  m  21 28 26.436432 +27 25 25.49847
 2018-Oct-20 01:39  m  21 28 26.210737 +27 25 26.97705
 2018-Oct-20 01:40  m  21 28 25.985078 +27 25 28.45509
 2018-Oct-20 01:41  m  21 28 25.759455 +27 25 29.93257
 2018-Oct-20 01:42  m  21 28 25.533869 +27 25 31.40951
 2018-Oct-20 01:43  m  21 28 25.308319 +27 25 32.88590
 2018-Oct-20 01:44  m  21 28 25.082807 +27 25 34.36175
 2018-Oct-20 01:45  m  21 28 24.857332 +27 25 35.83706
 2018-Oct-20 01:46  m  21 28 24.631896 +27 25 37.31182
 2018-Oct-20 01:47  m  21 28 24.406498 +27 25 38.78604
 2018-Oct-20 01:48  m  21 28 24.181138 +27 25 40.25972
 2018-Oct-20 01:49  m  21 28 23.955817 +27 25 41.73286
 2018-Oct-20 01:50  m  21 28 23.730536 +27 25 43.20546
 2018-Oct-20 01:51  m  21 28 23.505295 +27 25 44.67752
 2018-Oct-20 01:52  m  21 28 23.280093 +27 25 46.14905
 2018-Oct-20 01:53  m  21 28 23.054932 +27 25 47.62003
 2018-Oct-20 01:54  m  21 28 22.829811 +27 25 49.09048
 2018-Oct-20 01:55  m  21 28 22.604732 +27 25 50.56040
 2018-Oct-20 01:56  m  21 28 22.379694 +27 25 52.02978
 2018-Oct-20 01:57  m  21 28 22.154697 +27 25 53.49863
 2018-Oct-20 01:58  m  21 28 21.929743 +27 25 54.96695
 2018-Oct-20 01:59  m  21 28 21.704831 +27 25 56.43473
 2018-Oct-20 02:00  m  21 28 21.479962 +27 25 57.90199
 2018-Oct-20 02:01  m  21 28 21.255136 +27 25 59.36871
 2018-Oct-20 02:02  m  21 28 21.030353 +27 26 00.83491
 2018-Oct-20 02:03  m  21 28 20.805614 +27 26 02.30058
 2018-Oct-20 02:04  m  21 28 20.580919 +27 26 03.76573
 2018-Oct-20 02:05  m  21 28 20.356268 +27 26 05.23034
 2018-Oct-20 02:06  m  21 28 20.131662 +27 26 06.69444
 2018-Oct-20 02:07  m  21 28 19.907101 +27 26 08.15801
 2018-Oct-20 02:08  m  21 28 19.682586 +27 26 09.62106
 2018-Oct-20 02:09  m  21 28 19.458116 +27 26 11.08359
 2018-Oct-20 02:10  m  21 28 19.233692 +27 26 12.54560
 2018-Oct-20 02:11  m  21 28 19.009315 +27 26 14.00709
 2018-Oct-20 02:12  m  21 28 18.784984 +27 26 15.46806
 2018-Oct-20 02:13  m  21 28 18.560700 +27 26 16.92851
 2018-Oct-20 02:14  m  21 28 18.336464 +27 26 18.38845
 2018-Oct-20 02:15  m  21 28 18.112275 +27 26 19.84787
 2018-Oct-20 02:16  m  21 28 17.888134 +27 26 21.30678
 2018-Oct-20 02:17  m  21 28 17.664042 +27 26 22.76518
 2018-Oct-20 02:18  m  21 28 17.439998 +27 26 24.22307
 2018-Oct-20 02:19  m  21 28 17.216003 +27 26 25.68044
 2018-Oct-20 02:20  m  21 28 16.992057 +27 26 27.13731
 2018-Oct-20 02:21  m  21 28 16.768161 +27 26 28.59367
 2018-Oct-20 02:22  m  21 28 16.544314 +27 26 30.04952
 2018-Oct-20 02:23  m  21 28 16.320518 +27 26 31.50487
 2018-Oct-20 02:24  m  21 28 16.096773 +27 26 32.95971
 2018-Oct-20 02:25  m  21 28 15.873078 +27 26 34.41405
 2018-Oct-20 02:26  m  21 28 15.649434 +27 26 35.86789
 2018-Oct-20 02:27  m  21 28 15.425842 +27 26 37.32123
 2018-Oct-20 02:28  m  21 28 15.202302 +27 26 38.77406
 2018-Oct-20 02:29  m  21 28 14.978814 +27 26 40.22640
 2018-Oct-20 02:30  m  21 28 14.755378 +27 26 41.67824
 2018-Oct-20 02:31  m  21 28 14.531995 +27 26 43.12959
 2018-Oct-20 02:32  m  21 28 14.308664 +27 26 44.58044
 2018-Oct-20 02:33  m  21 28 14.085388 +27 26 46.03080
 2018-Oct-20 02:34  m  21 28 13.862164 +27 26 47.48066
 2018-Oct-20 02:35  m  21 28 13.638995 +27 26 48.93004
 2018-Oct-20 02:36  m  21 28 13.415880 +27 26 50.37892
 2018-Oct-20 02:37  m  21 28 13.192820 +27 26 51.82732
 2018-Oct-20 02:38  m  21 28 12.969814 +27 26 53.27523
 2018-Oct-20 02:39  m  21 28 12.746864 +27 26 54.72265
 2018-Oct-20 02:40  m  21 28 12.523969 +27 26 56.16959
 2018-Oct-20 02:41  m  21 28 12.301129 +27 26 57.61604
 2018-Oct-20 02:42  m  21 28 12.078346 +27 26 59.06202
 2018-Oct-20 02:43  m  21 28 11.855619 +27 27 00.50751
 2018-Oct-20 02:44  m  21 28 11.632949 +27 27 01.95253
 2018-Oct-20 02:45  m  21 28 11.410336 +27 27 03.39706
 2018-Oct-20 02:46  m  21 28 11.187780 +27 27 04.84112
 2018-Oct-20 02:47  m  21 28 10.965281 +27 27 06.28471
 2018-Oct-20 02:48  m  21 28 10.742841 +27 27 07.72782
 2018-Oct-20 02:49  m  21 28 10.520458 +27 27 09.17046
 2018-Oct-20 02:50  m  21 28 10.298134 +27 27 10.61263
 2018-Oct-20 02:51  m  21 28 10.075869 +27 27 12.05433
 2018-Oct-20 02:52  m  21 28 09.853662 +27 27 13.49556
 2018-Oct-20 02:53  m  21 28 09.631515 +27 27 14.93632
 2018-Oct-20 02:54  m  21 28 09.409428 +27 27 16.37662
 2018-Oct-20 02:55  m  21 28 09.187400 +27 27 17.81646
 2018-Oct-20 02:56  m  21 28 08.965432 +27 27 19.25583
 2018-Oct-20 02:57  m  21 28 08.743525 +27 27 20.69474
 2018-Oct-20 02:58  m  21 28 08.521679 +27 27 22.13319
 2018-Oct-20 02:59  m  21 28 08.299893 +27 27 23.57119
 2018-Oct-20 03:00  m  21 28 08.078169 +27 27 25.00873
 2018-Oct-20 03:01  m  21 28 07.856507 +27 27 26.44581
 2018-Oct-20 03:02  m  21 28 07.634906 +27 27 27.88244
 2018-Oct-20 03:03  m  21 28 07.413367 +27 27 29.31862
 2018-Oct-20 03:04  m  21 28 07.191891 +27 27 30.75434
 2018-Oct-20 03:05  m  21 28 06.970477 +27 27 32.18962
 2018-Oct-20 03:06  m  21 28 06.749127 +27 27 33.62445
 2018-Oct-20 03:07  m  21 28 06.527839 +27 27 35.05883
 2018-Oct-20 03:08  m  21 28 06.306615 +27 27 36.49277
 2018-Oct-20 03:09  m  21 28 06.085455 +27 27 37.92627
